KUIPER-00218            
1 67780U 26030S   26059.46042146  .00031950  00000+0  93929-3 0  9990
2 67780  51.8821 263.7128 0006207  30.1796 329.9546 15.34805042  3671
KUIPER-00220            
1 67781U 26030T   26059.46513116  .00018515  00000+0  55850-3 0  9994
2 67781  51.8803 263.7376 0008079  31.6297 328.5173 15.34307277  3676
KUIPER-00222            
1 67782U 26030U   26059.41550921  .00002836  00000+0  10083-3 0  9993
2 67782  51.8810 264.1490 0017511  35.2937 324.9203 15.32394289  3669
KUIPER-00223            
1 67783U 26030V   26059.47028403  .00017359  00000+0  53207-3 0  9996
2 67783  51.8823 263.7749 0012170  33.9624 326.2138 15.33809620  3674
KUIPER-00225            
1 67784U 26030W   26059.45375412  .00020091  00000+0  58401-3 0  9998
2 67784  51.8797 263.6658 0003571  18.8240 341.2877 15.35440226  3676
KUIPER-00226            
1 67785U 26030X   26059.42349822  .00020692  00000+0  67785-3 0  9994
2 67785  51.8824 264.1999 0019399  46.1859 314.0726 15.31450543  3666
KUIPER-00259            
1 67786U 26030Y   26059.46209404  .00029205  00000+0  86445-3 0  9993
2 67786  51.8800 263.7197 0007809  23.7181 336.4163 15.34626862  3674
KUIPER-00260            
1 67787U 26030Z   26059.44788801  .00021288  00000+0  60742-3 0  9990
2 67787  51.8786 263.6271 0000981  86.3747 273.7351 15.35988481  3588
KUIPER-00262            
1 67788U 26030AA  26059.44537487  .00022501  00000+0  63503-3 0  9990
2 67788  51.8800 263.6128 0001175 143.3862 216.7205 15.36295553  3672
KUIPER-00266            
1 67789U 26030AB  26059.42683447  .00022037  00000+0  72897-3 0  9997
2 67789  51.8815 264.2205 0022407  44.9335 315.3458 15.31034248  3666
KUIPER-00268            
1 67790U 26030AC  26059.45158729  .00019581  00000+0  56639-3 0  9998
2 67790  51.8832 263.6574 0001792  29.6134 330.4954 15.35614880  3670
KUIPER-00270            
1 67791U 26030AD  26059.46614708  .00016598  00000+0  50325-3 0  9995
2 67791  51.8802 263.7440 0009932  30.7843 329.3723 15.34211283  3675
