CCSDS_OMM_VERS = 2.0
CREATION_DATE  = 
ORIGINATOR     = 

OBJECT_NAME    = KUIPER-00218
OBJECT_ID      = 2026-030S
CENTER_NAME    = EARTH
REF_FRAME      = TEME
TIME_SYSTEM    = UTC
MEAN_ELEMENT_THEORY = SGP/SGP4

EPOCH          = 2026-02-28T11:03:00.414144
MEAN_MOTION    = 15.34805042
ECCENTRICITY   = .0006207
INCLINATION    = 51.8821
RA_OF_ASC_NODE = 263.7128
ARG_OF_PERICENTER = 30.1796
MEAN_ANOMALY   = 329.9546

EPHEMERIS_TYPE = 0
CLASSIFICATION_TYPE = U
NORAD_CAT_ID   = 67780
ELEMENT_SET_NO = 999
REV_AT_EPOCH   = 367
BSTAR          = .93929E-3
MEAN_MOTION_DOT = .3195E-3
MEAN_MOTION_DDOT = 0

CCSDS_OMM_VERS = 2.0
CREATION_DATE  = 
ORIGINATOR     = 

OBJECT_NAME    = KUIPER-00220
OBJECT_ID      = 2026-030T
CENTER_NAME    = EARTH
REF_FRAME      = TEME
TIME_SYSTEM    = UTC
MEAN_ELEMENT_THEORY = SGP/SGP4

EPOCH          = 2026-02-28T11:09:47.332224
MEAN_MOTION    = 15.34307277
ECCENTRICITY   = .0008079
INCLINATION    = 51.8803
RA_OF_ASC_NODE = 263.7376
ARG_OF_PERICENTER = 31.6297
MEAN_ANOMALY   = 328.5173

EPHEMERIS_TYPE = 0
CLASSIFICATION_TYPE = U
NORAD_CAT_ID   = 67781
ELEMENT_SET_NO = 999
REV_AT_EPOCH   = 367
BSTAR          = .5585E-3
MEAN_MOTION_DOT = .18515E-3
MEAN_MOTION_DDOT = 0

CCSDS_OMM_VERS = 2.0
CREATION_DATE  = 
ORIGINATOR     = 

OBJECT_NAME    = KUIPER-00222
OBJECT_ID      = 2026-030U
CENTER_NAME    = EARTH
REF_FRAME      = TEME
TIME_SYSTEM    = UTC
MEAN_ELEMENT_THEORY = SGP/SGP4

EPOCH          = 2026-02-28T09:58:19.995744
MEAN_MOTION    = 15.32394289
ECCENTRICITY   = .0017511
INCLINATION    = 51.8810
RA_OF_ASC_NODE = 264.1490
ARG_OF_PERICENTER = 35.2937
MEAN_ANOMALY   = 324.9203

EPHEMERIS_TYPE = 0
CLASSIFICATION_TYPE = U
NORAD_CAT_ID   = 67782
ELEMENT_SET_NO = 999
REV_AT_EPOCH   = 366
BSTAR          = .10083E-3
MEAN_MOTION_DOT = .2836E-4
MEAN_MOTION_DDOT = 0

CCSDS_OMM_VERS = 2.0
CREATION_DATE  = 
ORIGINATOR     = 

OBJECT_NAME    = KUIPER-00223
OBJECT_ID      = 2026-030V
CENTER_NAME    = EARTH
REF_FRAME      = TEME
TIME_SYSTEM    = UTC
MEAN_ELEMENT_THEORY = SGP/SGP4

EPOCH          = 2026-02-28T11:17:12.540192
MEAN_MOTION    = 15.33809620
ECCENTRICITY   = .001217
INCLINATION    = 51.8823
RA_OF_ASC_NODE = 263.7749
ARG_OF_PERICENTER = 33.9624
MEAN_ANOMALY   = 326.2138

EPHEMERIS_TYPE = 0
CLASSIFICATION_TYPE = U
NORAD_CAT_ID   = 67783
ELEMENT_SET_NO = 999
REV_AT_EPOCH   = 367
BSTAR          = .53207E-3
MEAN_MOTION_DOT = .17359E-3
MEAN_MOTION_DDOT = 0

CCSDS_OMM_VERS = 2.0
CREATION_DATE  = 
ORIGINATOR     = 

OBJECT_NAME    = KUIPER-00225
OBJECT_ID      = 2026-030W
CENTER_NAME    = EARTH
REF_FRAME      = TEME
TIME_SYSTEM    = UTC
MEAN_ELEMENT_THEORY = SGP/SGP4

EPOCH          = 2026-02-28T10:53:24.355968
MEAN_MOTION    = 15.35440226
ECCENTRICITY   = .0003571
INCLINATION    = 51.8797
RA_OF_ASC_NODE = 263.6658
ARG_OF_PERICENTER = 18.8240
MEAN_ANOMALY   = 341.2877

EPHEMERIS_TYPE = 0
CLASSIFICATION_TYPE = U
NORAD_CAT_ID   = 67784
ELEMENT_SET_NO = 999
REV_AT_EPOCH   = 367
BSTAR          = .58401E-3
MEAN_MOTION_DOT = .20091E-3
MEAN_MOTION_DDOT = 0

CCSDS_OMM_VERS = 2.0
CREATION_DATE  = 
ORIGINATOR     = 

OBJECT_NAME    = KUIPER-00226
OBJECT_ID      = 2026-030X
CENTER_NAME    = EARTH
REF_FRAME      = TEME
TIME_SYSTEM    = UTC
MEAN_ELEMENT_THEORY = SGP/SGP4

EPOCH          = 2026-02-28T10:09:50.246208
MEAN_MOTION    = 15.31450543
ECCENTRICITY   = .0019399
INCLINATION    = 51.8824
RA_OF_ASC_NODE = 264.1999
ARG_OF_PERICENTER = 46.1859
MEAN_ANOMALY   = 314.0726

EPHEMERIS_TYPE = 0
CLASSIFICATION_TYPE = U
NORAD_CAT_ID   = 67785
ELEMENT_SET_NO = 999
REV_AT_EPOCH   = 366
BSTAR          = .67785E-3
MEAN_MOTION_DOT = .20692E-3
MEAN_MOTION_DDOT = 0

CCSDS_OMM_VERS = 2.0
CREATION_DATE  = 
ORIGINATOR     = 

OBJECT_NAME    = KUIPER-00259
OBJECT_ID      = 2026-030Y
CENTER_NAME    = EARTH
REF_FRAME      = TEME
TIME_SYSTEM    = UTC
MEAN_ELEMENT_THEORY = SGP/SGP4

EPOCH          = 2026-02-28T11:05:24.925056
MEAN_MOTION    = 15.34626862
ECCENTRICITY   = .0007809
INCLINATION    = 51.8800
RA_OF_ASC_NODE = 263.7197
ARG_OF_PERICENTER = 23.7181
MEAN_ANOMALY   = 336.4163

EPHEMERIS_TYPE = 0
CLASSIFICATION_TYPE = U
NORAD_CAT_ID   = 67786
ELEMENT_SET_NO = 999
REV_AT_EPOCH   = 367
BSTAR          = .86445E-3
MEAN_MOTION_DOT = .29205E-3
MEAN_MOTION_DDOT = 0

CCSDS_OMM_VERS = 2.0
CREATION_DATE  = 
ORIGINATOR     = 

OBJECT_NAME    = KUIPER-00260
OBJECT_ID      = 2026-030Z
CENTER_NAME    = EARTH
REF_FRAME      = TEME
TIME_SYSTEM    = UTC
MEAN_ELEMENT_THEORY = SGP/SGP4

EPOCH          = 2026-02-28T10:44:57.524064
MEAN_MOTION    = 15.35988481
ECCENTRICITY   = .0000981
INCLINATION    = 51.8786
RA_OF_ASC_NODE = 263.6271
ARG_OF_PERICENTER = 86.3747
MEAN_ANOMALY   = 273.7351

EPHEMERIS_TYPE = 0
CLASSIFICATION_TYPE = U
NORAD_CAT_ID   = 67787
ELEMENT_SET_NO = 999
REV_AT_EPOCH   = 358
BSTAR          = .60742E-3
MEAN_MOTION_DOT = .21288E-3
MEAN_MOTION_DDOT = 0

CCSDS_OMM_VERS = 2.0
CREATION_DATE  = 
ORIGINATOR     = 

OBJECT_NAME    = KUIPER-00262
OBJECT_ID      = 2026-030AA
CENTER_NAME    = EARTH
REF_FRAME      = TEME
TIME_SYSTEM    = UTC
MEAN_ELEMENT_THEORY = SGP/SGP4

EPOCH          = 2026-02-28T10:41:20.388768
MEAN_MOTION    = 15.36295553
ECCENTRICITY   = .0001175
INCLINATION    = 51.8800
RA_OF_ASC_NODE = 263.6128
ARG_OF_PERICENTER = 143.3862
MEAN_ANOMALY   = 216.7205

EPHEMERIS_TYPE = 0
CLASSIFICATION_TYPE = U
NORAD_CAT_ID   = 67788
ELEMENT_SET_NO = 999
REV_AT_EPOCH   = 367
BSTAR          = .63503E-3
MEAN_MOTION_DOT = .22501E-3
MEAN_MOTION_DDOT = 0

CCSDS_OMM_VERS = 2.0
CREATION_DATE  = 
ORIGINATOR     = 

OBJECT_NAME    = KUIPER-00266
OBJECT_ID      = 2026-030AB
CENTER_NAME    = EARTH
REF_FRAME      = TEME
TIME_SYSTEM    = UTC
MEAN_ELEMENT_THEORY = SGP/SGP4

EPOCH          = 2026-02-28T10:14:38.498208
MEAN_MOTION    = 15.31034248
ECCENTRICITY   = .0022407
INCLINATION    = 51.8815
RA_OF_ASC_NODE = 264.2205
ARG_OF_PERICENTER = 44.9335
MEAN_ANOMALY   = 315.3458

EPHEMERIS_TYPE = 0
CLASSIFICATION_TYPE = U
NORAD_CAT_ID   = 67789
ELEMENT_SET_NO = 999
REV_AT_EPOCH   = 366
BSTAR          = .72897E-3
MEAN_MOTION_DOT = .22037E-3
MEAN_MOTION_DDOT = 0

CCSDS_OMM_VERS = 2.0
CREATION_DATE  = 
ORIGINATOR     = 

OBJECT_NAME    = KUIPER-00268
OBJECT_ID      = 2026-030AC
CENTER_NAME    = EARTH
REF_FRAME      = TEME
TIME_SYSTEM    = UTC
MEAN_ELEMENT_THEORY = SGP/SGP4

EPOCH          = 2026-02-28T10:50:17.141856
MEAN_MOTION    = 15.35614880
ECCENTRICITY   = .0001792
INCLINATION    = 51.8832
RA_OF_ASC_NODE = 263.6574
ARG_OF_PERICENTER = 29.6134
MEAN_ANOMALY   = 330.4954

EPHEMERIS_TYPE = 0
CLASSIFICATION_TYPE = U
NORAD_CAT_ID   = 67790
ELEMENT_SET_NO = 999
REV_AT_EPOCH   = 367
BSTAR          = .56639E-3
MEAN_MOTION_DOT = .19581E-3
MEAN_MOTION_DDOT = 0

CCSDS_OMM_VERS = 2.0
CREATION_DATE  = 
ORIGINATOR     = 

OBJECT_NAME    = KUIPER-00270
OBJECT_ID      = 2026-030AD
CENTER_NAME    = EARTH
REF_FRAME      = TEME
TIME_SYSTEM    = UTC
MEAN_ELEMENT_THEORY = SGP/SGP4

EPOCH          = 2026-02-28T11:11:15.107712
MEAN_MOTION    = 15.34211283
ECCENTRICITY   = .0009932
INCLINATION    = 51.8802
RA_OF_ASC_NODE = 263.7440
ARG_OF_PERICENTER = 30.7843
MEAN_ANOMALY   = 329.3723

EPHEMERIS_TYPE = 0
CLASSIFICATION_TYPE = U
NORAD_CAT_ID   = 67791
ELEMENT_SET_NO = 999
REV_AT_EPOCH   = 367
BSTAR          = .50325E-3
MEAN_MOTION_DOT = .16598E-3
MEAN_MOTION_DDOT = 0

